OBJECT_NAME,OBJECT_ID,EPOCH,MEAN_MOTION,ECCENTRICITY,INCLINATION,RA_OF_ASC_NODE,ARG_OF_PERICENTER,MEAN_ANOMALY,EPHEMERIS_TYPE,CLASSIFICATION_TYPE,NORAD_CAT_ID,ELEMENT_SET_NO,REV_AT_EPOCH,BSTAR,MEAN_MOTION_DOT,MEAN_MOTION_DDOT
IRIDIUM 156,2018-061H,2026-06-06T20:40:30.423072,14.34218882,.0002143,86.3965,61.0467,80.8029,279.3409,0,U,43576,999,41189,.83529E-4,.254E-5,0
IRIDIUM 164,2018-061J,2026-06-06T11:50:46.363488,14.34217181,.00020653,86.3967,61.2407,88.8157,271.3275,0,U,43577,999,41188,.52522962E-4,.167E-5,0
IRIDIUM 159,2018-061K,2026-06-06T11:05:06.453600,14.34218815,.00023221,86.3966,61.1908,86.7795,273.3667,0,U,43578,999,41184,.92377128E-4,.278E-5,0
IRIDIUM 180,2019-002A,2026-06-06T19:26:42.923328,14.34218034,.0002254,86.3973,357.9367,89.0697,271.0757,0,U,43922,999,38750,.12609E-4,.55E-6,0
IRIDIUM 176,2019-002B,2026-06-06T14:58:33.053088,14.72252866,.00022,86.6095,357.9594,90.4585,269.6885,0,U,43923,999,39769,.12364E-3,.804E-5,0
IRIDIUM 168,2019-002C,2026-06-06T19:17:34.964160,14.34217549,.00021,86.3971,358.0163,89.9178,270.2259,0,U,43924,999,38748,.1266E-5,.23E-6,0
IRIDIUM 173,2019-002D,2026-06-06T18:59:18.801312,14.34217182,.0002241,86.3975,357.9108,86.7782,273.3671,0,U,43925,999,38746,.48438E-4,.155E-5,0
IRIDIUM 169,2019-002E,2026-06-06T14:38:42.016128,14.38609732,.0002217,86.4237,29.6155,70.9584,289.1854,0,U,43926,999,38870,.92071E-4,.302E-5,0
IRIDIUM 172,2019-002F,2026-06-06T18:50:10.951008,14.34217834,.0002271,86.3973,357.9214,89.0585,271.0870,0,U,43927,999,38747,.10429E-4,.49E-6,0
IRIDIUM 175,2019-002G,2026-06-06T16:05:43.822176,14.43606921,.0001191,86.4506,294.9180,227.9272,132.1828,0,U,43928,999,39746,.10308E-3,.369E-5,0
IRIDIUM 171,2019-002H,2026-06-06T20:03:14.925888,14.34217552,.00019,86.3978,358.2052,86.8894,273.2520,0,U,43929,999,38747,.90177E-6,.22E-6,0
IRIDIUM 170,2019-002J,2026-06-06T20:01:04.613088,14.72252497,.0002367,86.6093,357.8739,87.1284,273.0204,0,U,43930,999,39773,.32903E-4,.232E-5,0
IRIDIUM 167,2019-002K,2026-06-06T14:52:42.886848,14.34217590,.0001879,86.3974,358.0127,85.4951,274.6459,0,U,43931,999,38744,-.21435E-5,.14E-6,0
IRIDIUM 181,2023-068S,2026-06-06T10:18:48.891456,14.43308993,.00022693,86.4503,61.2868,89.9643,270.1818,0,U,56726,999,16088,.10689608E-3,.38E-5,0
IRIDIUM 177,2023-068T,2026-06-06T18:38:25.914048,14.80221466,.0002473,86.1959,333.7375,86.8854,273.2650,0,U,56727,999,16482,.16077E-3,.1248E-4,0
IRIDIUM 174,2023-068U,2026-06-06T13:11:46.631328,14.72254363,.0002599,86.6103,358.1398,87.7998,272.3516,0,U,56728,999,16445,.52599E-4,.356E-5,0
IRIDIUM 178,2023-068V,2026-06-06T15:08:02.850720,14.80248933,.0002492,86.6546,29.7721,88.5001,271.6506,0,U,56729,999,16480,.13392E-3,.1044E-4,0
IRIDIUM 179,2023-068W,2026-06-06T15:00:22.637664,14.80232237,.0002405,86.6789,38.7229,87.2430,272.9067,0,U,56730,999,16480,.12962E-3,.1011E-4,0
